satname,norad_id,inclination_deg,eccentricity,mean_motion_rev_per_day,perigee_km,apogee_km,l1,l2
STARLINK-1008,44714,53.1568,0.0001273,15.31036083,471.8476983284463,473.59192647288364,1 44714U 19074B   26054.54089312  .00000969  00000+0  43797-4 0  9997,2 44714  53.1568 244.5638 0001273  95.0474 265.0672 15.31036083346702
STARLINK-1012,44718,53.1615,0.0001009,15.30200706,474.5214584202831,475.9044644425003,1 44718U 19074F   26054.51354291  .00003198  00000+0  12005-3 0  9993,2 44718  53.1615 244.6539 0001009  82.1810 277.9305 15.30200706346695
STARLINK-1017,44723,53.0507,0.0003379,15.22666233,495.4788563919228,500.1256161277861,1 44723U 19074L   26054.76604862  .00034704  00000+0  14784-2 0  9990,2 44723  53.0507 235.6253 0003379 133.3313 226.7965 15.22666233346845
STARLINK-1019,44724,53.0439,0.0005708,15.7750798,333.67060206018505,341.33717770007206,1 44724U 19074M   26054.69176229  .00122173  00000+0  71401-3 0  9992,2 44724  53.0439 206.8918 0005708 155.1371 204.9924 15.77507980347232
STARLINK-1020,44725,53.1287,0.0001707,15.2345297,494.26147918944025,496.6081166012418,1 44725U 19074N   26054.91667824  .01050656  00000+0  40385-1 0  9996,2 44725  53.1287 267.7083 0001707 107.7212 116.1618 15.23452970  5836
STARLINK-1031,44736,53.0407,0.0002467,15.84898729,314.9583123085895,318.2615004321924,1 44736U 19074Z   26054.91667824  .00114035  00000+0  47482-3 0  9996,2 44736  53.0407 189.9506 0002467 266.6547 103.4853 15.84898729  5985
STARLINK-1036,44741,53.0514,0.0004689,15.52750521,405.51713249258137,411.8818277436367,1 44741U 19074AE  26054.85228079  .00080456  00000+0  12734-2 0  9990,2 44741  53.0514 255.3720 0004689 162.7275 197.3895 15.52750521346571
STARLINK-1039,44744,53.0453,0.0006647,15.20199841,500.6619233242682,509.81268112164344,1 44744U 19074AH  26053.89537009  .00037032  00000+0  16935-2 0  9991,2 44744  53.0453 283.0210 0006647 129.8067 230.3514 15.20199841346109
STARLINK-1042,44747,53.0427,0.0002344,15.49031318,417.96515878891205,421.151918457419,1 44747U 19074AL  26054.59158925  .00026615  00000+0  48964-3 0  9991,2 44747  53.0427 162.3930 0002344 112.1644 247.9612 15.49031318347881
STARLINK-1043,44748,53.0526,0.0002771,15.52622368,407.19219478563264,410.95366652920256,1 44748U 19074AM  26054.30786273  .00032174  00000+0  51934-3 0  9992,2 44748  53.0526 263.8296 0002771  88.7094 271.4233 15.52622368346419
STARLINK-1046,44751,53.0545,0.0007645,15.42433287,433.71865875878484,444.14195467075115,1 44751U 19074AQ  26053.90668787  .00101611  00000+0  22905-2 0  9998,2 44751  53.0545 281.0318 0007645 127.6451 232.5249 15.42433287346139
STARLINK-1047,44752,53.0696,0.0003831,15.32202114,466.6203967694746,471.8668598068698,1 44752U 19074AR  26054.47385234  .00011506  00000+0  37603-3 0  9990,2 44752  53.0696 212.3979 0003831 153.6712 206.4483 15.32202114347165
STARLINK-1048,44753,53.0544,0.0004579,15.50653202,411.70724834612975,417.92823629914983,1 44753U 19074AS  26054.22443438  .00030216  00000+0  52369-3 0  9990,2 44753  53.0544 238.4470 0004579 138.3553 221.7804 15.50653202346755
STARLINK-1053,44758,53.0291,0.0004985,15.84999692,312.98841432725476,319.66279354337803,1 44758U 19074AX  26054.91667824  .00129030  00000+0  53303-3 0  9990,2 44758  53.0291 153.4323 0004985 358.5888 110.1019 15.84999692  5990
STARLINK-1063,44768,53.1572,0.0003451,15.29325153,475.46245633499257,480.1944436885915,1 44768U 19074BH  26054.77491271 -.00526491  00000+0 -19567-1 0  9992,2 44768  53.1572 284.0286 0003451 132.1302 227.9992 15.29325153346187
STARLINK-1067,44771,53.0532,9.28e-05,15.54161056,403.96299570260453,405.2218702853679,1 44771U 19074BL  26054.30498028  .00092758  00000+0  13922-2 0  9994,2 44771  53.0532 273.7972 0000928 158.4309 201.6740 15.54161056346275
STARLINK-1068,44772,53.0508,0.0004476,15.60123768,384.2710366953079,390.3274552226894,1 44772U 19074BM  26054.80024525  .00048677  00000+0  59100-3 0  9997,2 44772  53.0508 247.7230 0004476 165.4964 194.6177 15.60123768346678
STARLINK-1112,44925,53.0379,0.000185,15.98243298,278.0609355903907,280.5241845276132,1 44925U 20001M   26054.91667824  .00392056  74949-4  83088-3 0  9999,2 44925  53.0379 312.4927 0001850 161.0839 277.4047 15.98243298  6056
STARLINK-1114,44927,53.0519,0.0008435,15.47581252,418.06668063061716,429.5415552966215,1 44927U 20001P   26054.48321158  .00074730  00000+0  14203-2 0  9990,2 44927  53.0519  37.4165 0008435  61.5473 298.6382 15.47581252337891
STARLINK-1123,44930,53.0751,0.000157,15.11503303,530.5298618334218,532.6995238649761,1 44930U 20001S   26054.91667824  .00990655  00000+0  53792-1 0  9993,2 44930  53.0751  48.4010 0001570  89.8967 260.5249 15.11503303  5825
STARLINK-1094,44941,53.161,0.0001354,15.3019285,474.3084713528433,476.16436487446936,1 44941U 20001AD  26054.64079993 -.00001007  00000+0 -21880-4 0  9991,2 44941  53.1610  24.8165 0001354  94.8558 265.2597 15.30192850338080
STARLINK-1122,44949,53.1617,0.0001561,15.30204486,474.1318688974761,476.2714812318318,1 44949U 20001AM  26054.20993314  .00000803  00000+0  39234-4 0  9996,2 44949  53.1617  26.8658 0001561  91.0111 269.1069 15.30204486338017
STARLINK-1080,44961,53.0537,0.0009042,15.44659878,426.2195693638878,438.5357040328927,1 44961U 20001AZ  26054.84579042  .00068790  00000+0  14469-2 0  9998,2 44961  53.0537 354.2137 0009042  67.1415 293.0544 15.44659878338539
STARLINK-1090,44968,53.0536,0.0001714,15.06395363,546.0387625331541,548.412776890611,1 44968U 20001BG  26054.29661151 -.00003668  00000+0 -22747-3 0  9991,2 44968  53.0536  11.2320 0001714  92.2848 267.8337 15.06395363338247
STARLINK-1132,45044,53.1578,0.0005234,15.4178685,437.2666199480818,444.4047205392926,1 45044U 20006A   26054.72941737  .00059772  00000+0  13890-2 0  9994,2 45044  53.1578 320.0531 0005234 133.3025 226.8418 15.41786850334773
STARLINK-1131,45047,53.1595,0.0001325,15.30179171,474.36918437465465,476.1853391540226,1 45047U 20006D   26054.81925660  .00000093  00000+0  15278-4 0  9990,2 45047  53.1595 345.4087 0001325  80.6953 279.4198 15.30179171334424
STARLINK-1134,45048,53.0342,0.0010393,15.42098139,432.8319797872,447.00398887763276,1 45048U 20006E   26054.11528685  .00022196  00000+0  51823-3 0  9993,2 45048  53.0342 307.5149 0010393 124.1679 236.0312 15.42098139334891
STARLINK-1156,45054,53.1585,0.000152,15.30206557,474.1537849304377,476.2371980078442,1 45054U 20006L   26054.91667824 -.00009076  00000+0 -29461-3 0  9994,2 45054  53.1585 344.9693 0001520 109.4888 282.4411 15.30206557  5787
STARLINK-1159,45057,53.0475,0.0006084,15.77805717,332.5737394224625,340.7443032212059,1 45057U 20006P   26054.39549043  .00130067  00000+0  74909-3 0  9991,2 45057  53.0475 306.4684 0006084  98.9909 261.1799 15.77805717334935
STARLINK-1166,45060,53.0544,0.000619,15.43545439,431.437630219978,439.87310517118476,1 45060U 20006S   26054.79172250  .00035438  00000+0  78239-3 0  9997,2 45060  53.0544 338.7964 0006190  96.0298 264.1412 15.43545439334517
STARLINK-1169,45061,53.1601,0.0001236,15.30193864,474.3863138902625,476.08046705078687,1 45061U 20006T   26054.22508906 -.00000538  00000+0 -60266-5 0  9995,2 45061  53.1601 348.1816 0001236  88.6103 271.5039 15.30193864334336
STARLINK-1171,45062,53.0466,0.0002068,15.54672482,401.70249009463896,404.50721172417525,1 45062U 20006U   26054.45726021  .00091504  00000+0  13483-2 0  9998,2 45062  53.0466 318.4406 0002068 351.6698   8.4277 15.54672482334779
STARLINK-1133,45064,53.1582,0.0001267,15.30226869,474.2665350596799,476.0031541451026,1 45064U 20006W   26054.16555507  .00007565  00000+0  26706-3 0  9994,2 45064  53.1582 325.2638 0001267  91.0987 269.0159 15.30226869334659
STARLINK-1167,45071,53.1593,0.0001432,15.29353814,476.7610311779563,478.7245551507185,1 45071U 20006AD  26054.44694776  .00001265  00000+0  56181-4 0  9997,2 45071  53.1593 323.9240 0001432  80.4727 279.6436 15.29353814334699
STARLINK-1168,45072,53.1586,0.0001625,15.29372089,476.5741059331722,478.8022491158672,1 45072U 20006AE  26054.71815272 -.00004361  00000+0 -13879-3 0  9992,2 45072  53.1586 322.7288 0001625  91.7223 268.3963 15.29372089334731
STARLINK-1172,45074,53.1605,0.0001342,15.30189649,474.32625181841104,476.16569980911845,1 45074U 20006AG  26054.73022416  .00000450  00000+0  27344-4 0  9992,2 45074  53.1605 322.6645 0001342  94.4886 265.6268 15.30189649334730
STARLINK-1153,45080,53.1607,0.0001325,15.29365349,476.7999206788945,478.6167196887436,1 45080U 20006AN  26054.03925293  .00000571  00000+0  32129-4 0  9998,2 45080  53.1607 325.7333 0001325  99.6937 260.4213 15.29365349334635
STARLINK-1151,45081,53.0513,0.0011927,15.56381544,390.0575573332999,406.22168758851967,1 45081U 20006AP  26054.68378858  .00052388  00000+0  72929-3 0  9993,2 45081  53.0513 308.1732 0011927 100.1007 260.1349 15.56381544334939
STARLINK-1185,45087,53.1542,0.0001708,15.29353163,476.57375412550846,478.9157233274573,1 45087U 20006AV  26054.91667824 -.00005689  00000+0 -18497-3 0  9993,2 45087  53.1542 306.3361 0001708  98.1430 201.6950 15.29353163  5634
STARLINK-1183,45088,53.1563,0.0001564,15.2941022,476.50199162374884,478.6464580948841,1 45088U 20006AW  26054.71004686  .00018936  00000+0  66574-3 0  9999,2 45088  53.1563 307.5126 0001564  70.1267 289.9902 15.29410220334941
STARLINK-1152,45096,53.0392,0.0006824,15.36486807,451.84386940671993,461.17179267212305,1 45096U 20006BE  26054.62182936  .00048337  00000+0  13394-2 0  9992,2 45096  53.0392 272.7384 0006824 142.6972 217.4505 15.36486807335421
STARLINK-1184,45098,53.053,0.0006388,15.09783337,532.4441855449195,541.2787876113716,1 45098U 20006BG  26054.69991234  .00024457  00000+0  15093-2 0  9995,2 45098  53.0530 308.5694 0006388  97.1582 263.0135 15.09783337334923
STARLINK-1193,45100,53.0521,0.0004665,15.49596526,414.73513278231076,421.07584042230974,1 45100U 20006BJ  26054.68526367  .00055276  00000+0  98452-3 0  9993,2 45100  53.0521 297.9293 0004665 152.2283 207.8975 15.49596526335071
